SONATE                  
1 44400U 19038Q   24152.50225794  .00026577  00000+0  81823-3 0  9992
2 44400  97.7120 145.8622 0017407 157.7326 202.4675 15.33473590271521
LUCKY-7                 
1 44406U 19038W   24152.51121101  .00048743  00000+0  11015-2 0  9990
2 44406  97.7026 149.7347 0015605 141.8067 218.4288 15.42900988271795
BEESAT 9                
1 44412U 19038AC  24152.55260790  .01830020  28360-2  18832-2 0  9993
2 44412  97.6696 159.9560 0009921 188.6569 171.4545 16.11337544272204
JAISAT-1                
1 44419U 19038F   24152.54968514  .00921400  40442-3  19340-2 0  9991
2 44419  97.6621 160.6977 0009743 159.4711 200.6959 15.98921529272566
DUCHIFAT-3              
1 44854U 19089C   24152.39812424  .00017550  00000+0  89892-3 0  9995
2 44854  36.9562 150.9149 0007576 294.9749  65.0211 15.15892107245720
M2 PATHFINDER           
1 45727U 20037E   24152.47662006  .00003825  00000+0  33686-3 0  9998
2 45727  97.7759 329.0024 0011359 175.2312 184.9019 14.97029477213447
NETSAT-4                
1 46504U 20068U   24152.42771198  .00012960  00000+0  69853-3 0  9999
2 46504  97.8046 109.1197 0011987  66.0663 294.1822 15.14869754201636
NETSAT-3                
1 46505U 20068V   24152.60419610  .00013928  00000+0  76190-3 0  9995
2 46505  97.8022 108.8284 0011436  72.9987 287.2497 15.14330253201658
NETSAT-1                
1 46506U 20068W   24152.57013935  .00010316  00000+0  59150-3 0  9997
2 46506  97.8040 108.3055 0010074  81.8768 278.3604 15.12737108201618
NETSAT-2                
1 46507U 20068X   24152.44377638  .00012165  00000+0  65807-3 0  9997
2 46507  97.8027 108.7734 0009668  87.1222 273.1115 15.14778399201588
WILDTRACKCUBE-SIMBA     
1 47941U 21022K   24152.59673694  .00020218  00000+0  91038-3 0  9991
2 47941  97.4625  49.5159 0015084 194.8452 165.2343 15.21003090175945
BEESAT-6                
1 47957U 21022AB  24151.69941999  .00199909  00000+0  20893-2 0  9998
2 47957  97.4353  59.0622 0011635 137.4161 222.8002 15.63747615176328
SMOG-1                  
1 47964U 21022AJ  24152.27882147  .00198053  00000+0  22700-2 0  9998
2 47964  97.4630  62.7764 0012176 134.0049 226.2214 15.61363243175591
BCCSAT-1                
1 48041U 21022AK  24152.25011593  .00084711  00000+0  16942-2 0  9998
2 48041  97.4634  58.8551 0010446 138.9317 221.2721 15.46422199175318
BEESAT-5                
1 48083U 21022AM  24152.26631063  .00532547  00000+0  26328-2 0  9999
2 48083  97.3994  61.1083 0012706 138.5655 221.6579 15.80586362175698
BEESAT-7                
1 48084U 21022AN  24151.22508575  .00119503  00000+0  16644-2 0  9999
2 48084  97.4593  58.6234 0012015 146.3058 213.8963 15.56448441174968
BEESAT-8                
1 48085U 21022AP  24152.50175133  .00042555  00000+0  13829-2 0  9996
2 48085  97.4773  54.4174 0012864 172.4710 187.6727 15.31708914175327
LEDSAT                  
1 49069U 21073D   24152.44936639  .00019008  00000+0  77652-3 0  9996
2 49069  97.4379 223.6987 0018501 345.9860  14.0861 15.24269336153905
SITRO-AIS 5 (KATYS)     
1 57176U 23091L   24152.57322495  .00011697  00000+0  75667-3 0  9999
2 57176  97.6129 204.9009 0018307 174.5532 185.5899 15.08201703 50997
SITRO-AIS 6 (CHIRKIN)   
1 57192U 23091AC  24152.55904976  .00011966  00000+0  77269-3 0  9994
2 57192  97.6136 204.9102 0018085 174.2619 185.8820 15.08265526 50993
SITRO-AIS 8 (ANOKHIN)   
1 57193U 23091AD  24152.59668195  .00011929  00000+0  76411-3 0  9996
2 57193  97.6134 205.0069 0017905 174.0869 186.0575 15.08568245 51008
SITRO-AIS 7 (FARTUSHNIY)
1 57194U 23091AE  24152.49723392  .00011883  00000+0  76838-3 0  9999
2 57194  97.6130 204.8324 0017935 175.1222 185.0185 15.08219963 50986
SITRO-AIS 10 (BURDAEV)  
1 57199U 23091AK  24152.58675212  .00012585  00000+0  76883-3 0  9991
2 57199  97.6146 205.8490 0013310 161.9987 198.1716 15.10347638 51055
SITRO-AIS 9 (SHCHUKIN)  
1 57201U 23091AM  24152.58491281  .00012377  00000+0  75657-3 0  9994
2 57201  97.6141 205.8294 0013253 161.9716 198.1986 15.10331607 51050
SITRO-AIS 12 (SMIRENNIY)
1 57204U 23091AQ  24152.54948053  .00013212  00000+0  80296-3 0  9991
2 57204  97.6156 205.9182 0013300 156.3700 203.8143 15.10523668 51059
SITRO-AIS 11 (SHEFFER)  
1 57208U 23091AU  24152.60230525  .00013468  00000+0  81656-3 0  9994
2 57208  97.6152 205.9917 0013197 156.0827 204.1018 15.10608007 51063
SITRO-AIS 29            
1 59052U 24039B   24152.58595939  .00029624  00000+0  11096-2 0  9997
2 59052  97.3907 114.7333 0015140 274.8325  85.1186 15.27125265 14068
SITRO-AIS 30            
1 59053U 24039C   24152.58526891  .00034344  00000+0  12858-2 0  9991
2 59053  97.3904 114.7310 0015243 275.6757  84.2743 15.27106620 14055
SITRO-AIS 31            
1 59054U 24039D   24152.57982562  .00029810  00000+0  11135-2 0  9991
2 59054  97.3907 114.7385 0015147 275.6804  84.2708 15.27213898 14076
SITRO-AIS 33            
1 59055U 24039E   24152.57331363  .00029883  00000+0  11120-2 0  9993
2 59055  97.3910 114.7505 0014836 276.6196  83.3354 15.27343110 14061
SITRO-AIS 35            
1 59056U 24039F   24152.57019777  .00030096  00000+0  11185-2 0  9995
2 59056  97.3908 114.7529 0014643 276.8179  83.1394 15.27386957 14062
SITRO-AIS 32            
1 59057U 24039G   24152.57483894  .00029458  00000+0  10993-2 0  9997
2 59057  97.3909 114.7477 0014701 276.9193  83.0373 15.27255286 14064
SITRO-AIS 34            
1 59058U 24039H   24152.57242579  .00029871  00000+0  11123-2 0  9996
2 59058  97.3910 114.7526 0014828 276.8945  83.0607 15.27321940 14067
SITRO-AIS 36            
1 59059U 24039J   24152.56659124  .00029547  00000+0  10965-2 0  9997
2 59059  97.3908 114.7581 0014369 276.9176  83.0429 15.27442199 14065
SITRO-AIS 49            
1 59060U 24039K   24152.56625741  .00033340  00000+0  12376-2 0  9991
2 59060  97.3908 114.7585 0014376 276.2384  83.7218 15.27407674 14065
SITRO-AIS 50            
1 59061U 24039L   24152.55998761  .00030118  00000+0  11131-2 0  9994
2 59061  97.3908 114.7664 0014311 276.7498  83.2113 15.27575301 14066
SITRO-AIS 51            
1 59062U 24039M   24152.55921049  .00029218  00000+0  10809-2 0  9990
2 59062  97.3908 114.7677 0014305 276.5767  83.3843 15.27549687 14060
SITRO-AIS 52            
1 59063U 24039N   24152.55435106  .00029162  00000+0  10762-2 0  9991
2 59063  97.3910 114.7746 0014142 276.4961  83.4668 15.27631982 14061
SITRO-AIS 25            
1 59066U 24039R   24152.60864912  .00011230  00000+0  10717-2 0  9998
2 59066  95.4025  86.1329 0174045  40.7117 320.6961 14.82579702 13650
SITRO-AIS 26            
1 59067U 24039S   24152.60800791  .00010132  00000+0  96807-3 0  9999
2 59067  95.4025  86.1330 0173920  40.7344 320.6731 14.82565678 13658
SITRO-AIS 27            
1 59068U 24039T   24152.60055291  .00011014  00000+0  10488-2 0  9997
2 59068  95.4027  86.1423 0173601  40.6166 320.7854 14.82714881 13650
SITRO-AIS 28            
1 59071U 24039U   24152.59843966  .00011055  00000+0  10521-2 0  9996
2 59071  95.4028  86.1452 0173453  40.6096 320.7912 14.82751318 13655
BEIJING 1               
1 28890U 05043A   24152.60043500  .00000672  00000+0  14221-3 0  9998
2 28890  98.1981 275.5801 0016210  97.9904 262.3138 14.62334227991470
HUANJING 1A (HJ-1A)     
1 33320U 08041A   24152.59865450  .00002510  00000+0  33790-3 0  9992
2 33320  97.6312 160.4321 0021869  67.5322 292.8204 14.79886113847801
HUANJING 1B (HJ-1B)     
1 33321U 08041B   24152.60615599  .00001885  00000+0  25122-3 0  9996
2 33321  97.6264 164.9790 0039977 109.5953 250.9582 14.80201634847831
YAOGAN-4                
1 33446U 08061A   24152.38975047  .00000603  00000+0  87012-4 0  9992
2 33446  97.8794  84.5884 0014561 346.5443  13.5378 14.79764125835075
DEIMOS-1                
1 35681U 09041A   24152.55624668  .00001046  00000+0  16894-3 0  9994
2 35681  97.6801 335.3716 0002863  85.7906 274.3630 14.73303540796869
UK-DMC 2                
1 35683U 09041C   24152.56390108  .00001525  00000+0  24315-3 0  9995
2 35683  97.7794 300.8964 0001541  99.7255 260.4128 14.73284266796512
DMC3-FM1                
1 40715U 15032A   24152.57382397  .00001233  00000+0  15565-3 0  9999
2 40715  97.7524  31.9741 0005678   3.4655 356.6597 14.83654476479118
DMC3-FM2                
1 40716U 15032B   24152.59676231  .00001247  00000+0  15726-3 0  9999
2 40716  97.7576  33.0545 0007653   3.9258 356.2015 14.83660645479116
DMC3-FM3                
1 40717U 15032C   24152.62079491  .00000974  00000+0  12434-3 0  9998
2 40717  97.7625  34.3446 0009017 358.7512   1.3678 14.83597541479124
NOAA 15                 
1 25338U 98030A   24152.61425855  .00000451  00000+0  20481-3 0  9998
2 25338  98.5691 180.0866 0010574  20.2459 339.9139 14.26591148354829
DMSP 5D-3 F16 (USA 172) 
1 28054U 03048A   24152.60122181  .00000169  00000+0  11282-3 0  9991
2 28054  99.0204 158.9145 0008439  98.4565   9.7892 14.14031007 63958
NOAA 18                 
1 28654U 05018A   24152.57020652  .00000401  00000+0  23725-3 0  9996
2 28654  98.8743 229.6726 0015362 109.8795 250.4034 14.13220094980827
METEOSAT-9 (MSG-2)      
1 28912U 05049B   24151.86993819  .00000129  00000+0  00000+0 0  9996
2 28912   7.6478  61.0161 0001464 359.8986 186.8289  1.00269432 67556
EWS-G1 (GOES 13)        
1 29155U 06018A   24152.39814398 -.00000188  00000+0  00000+0 0  9992
2 29155   2.5829  85.4781 0082554 254.9465 356.3850  0.99106254 35860
DMSP 5D-3 F17 (USA 191) 
1 29522U 06050A   24152.56334178  .00000190  00000+0  12156-3 0  9999
2 29522  98.7437 163.4831 0010743  33.1953 326.9893 14.14480836906841
FENGYUN 3A              
1 32958U 08026A   24152.46369029  .00000274  00000+0  15133-3 0  9994
2 32958  98.6033 100.0670 0009707 117.1593 243.0574 14.19096374829471
